{
  "type": "FeatureCollection",
  "features": [
    {
      "type": "Feature",
      "properties": {
        "norad_id": 25590,
        "name": "COSMOS 2361",
        "group": "musson",
        "lat": -69.1052408467791,
        "lon": -35.025118697515296,
        "alt_km": 975.1933013081189,
        "timestamp": "2025-12-12T22:42:12.815443+00:00",
        "meta_object_name": "COSMOS 2361",
        "meta_object_id": "1998-076A",
        "meta_epoch": "2025-12-12T02:22:20.301312",
        "meta_mean_motion": 13.7321741,
        "meta_eccentricity": 0.0030052,
        "meta_inclination": 82.9339,
        "meta_ra_of_asc_node": 344.5604,
        "meta_arg_of_pericenter": 267.4467,
        "meta_mean_anomaly": 156.6361,
        "meta_ephemeris_type": 0,
        "meta_classification_type": "U",
        "meta_norad_cat_id": 25590,
        "meta_element_set_no": 999,
        "meta_rev_at_epoch": 35102,
        "meta_bstar": 9.0830817e-05,
        "meta_mean_motion_dot": 9.9e-07,
        "meta_mean_motion_ddot": 0,
        "tle_line1": "1 25590U 98076A   25346.09884608  .00000099  00000+0  90831-4 0  9996",
        "tle_line2": "2 25590  82.9339 344.5604 0030052 267.4467 156.6361 13.73217410351027"
      },
      "geometry": {
        "type": "Point",
        "coordinates": [
          -35.025118697515296,
          -69.1052408467791
        ]
      }
    },
    {
      "type": "Feature",
      "properties": {
        "norad_id": 26818,
        "name": "COSMOS 2378",
        "group": "musson",
        "lat": 2.9250226918016167,
        "lon": -0.06433795871725798,
        "alt_km": 1009.4494057295215,
        "timestamp": "2025-12-12T22:42:12.815465+00:00",
        "meta_object_name": "COSMOS 2378",
        "meta_object_id": "2001-023A",
        "meta_epoch": "2025-12-12T07:00:54.470304",
        "meta_mean_motion": 13.74141931,
        "meta_eccentricity": 0.00323733,
        "meta_inclination": 82.9272,
        "meta_ra_of_asc_node": 0.0567,
        "meta_arg_of_pericenter": 206.1731,
        "meta_mean_anomaly": 164.8551,
        "meta_ephemeris_type": 0,
        "meta_classification_type": "U",
        "meta_norad_cat_id": 26818,
        "meta_element_set_no": 999,
        "meta_rev_at_epoch": 22917,
        "meta_bstar": 6.3144806e-05,
        "meta_mean_motion_dot": 7.5e-07,
        "meta_mean_motion_ddot": 0,
        "tle_line1": "1 26818U 01023A   25346.29229711  .00000075  00000+0  63145-4 0  9998",
        "tle_line2": "2 26818  82.9272   0.0567 0032373 206.1731 164.8551 13.74141931229178"
      },
      "geometry": {
        "type": "Point",
        "coordinates": [
          -0.06433795871725798,
          2.9250226918016167
        ]
      }
    },
    {
      "type": "Feature",
      "properties": {
        "norad_id": 27436,
        "name": "COSMOS 2389",
        "group": "musson",
        "lat": -30.707216269300815,
        "lon": 131.04677366097903,
        "alt_km": 1017.6084034188179,
        "timestamp": "2025-12-12T22:42:12.815478+00:00",
        "meta_object_name": "COSMOS 2389",
        "meta_object_id": "2002-026A",
        "meta_epoch": "2025-12-12T06:30:39.460320",
        "meta_mean_motion": 13.75154542,
        "meta_eccentricity": 0.0047629,
        "meta_inclination": 82.9502,
        "meta_ra_of_asc_node": 307.3314,
        "meta_arg_of_pericenter": 62.0122,
        "meta_mean_anomaly": 50.3674,
        "meta_ephemeris_type": 0,
        "meta_classification_type": "U",
        "meta_norad_cat_id": 27436,
        "meta_element_set_no": 999,
        "meta_rev_at_epoch": 18142,
        "meta_bstar": 9.0936707e-05,
        "meta_mean_motion_dot": 1.03e-06,
        "meta_mean_motion_ddot": 0,
        "tle_line1": "1 27436U 02026A   25346.27129005  .00000103  00000+0  90937-4 0  9993",
        "tle_line2": "2 27436  82.9502 307.3314 0047629  62.0122  50.3674 13.75154542181420"
      },
      "geometry": {
        "type": "Point",
        "coordinates": [
          131.04677366097903,
          -30.707216269300815
        ]
      }
    },
    {
      "type": "Feature",
      "properties": {
        "norad_id": 27818,
        "name": "COSMOS 2398",
        "group": "musson",
        "lat": 18.24946857692696,
        "lon": 90.2072825866723,
        "alt_km": 975.9102827682,
        "timestamp": "2025-12-12T22:42:12.815491+00:00",
        "meta_object_name": "COSMOS 2398",
        "meta_object_id": "2003-023A",
        "meta_epoch": "2025-12-12T06:42:48.232224",
        "meta_mean_motion": 13.72385706,
        "meta_eccentricity": 0.00325522,
        "meta_inclination": 82.9485,
        "meta_ra_of_asc_node": 273.0372,
        "meta_arg_of_pericenter": 113.0393,
        "meta_mean_anomaly": 358.3244,
        "meta_ephemeris_type": 0,
        "meta_classification_type": "U",
        "meta_norad_cat_id": 27818,
        "meta_element_set_no": 999,
        "meta_rev_at_epoch": 12810,
        "meta_bstar": 8.7398732e-05,
        "meta_mean_motion_dot": 9.6e-07,
        "meta_mean_motion_ddot": 0,
        "tle_line1": "1 27818U 03023A   25346.27972491  .00000096  00000+0  87399-4 0  9999",
        "tle_line2": "2 27818  82.9485 273.0372 0032552 113.0393 358.3244 13.72385706128108"
      },
      "geometry": {
        "type": "Point",
        "coordinates": [
          90.2072825866723,
          18.24946857692696
        ]
      }
    },
    {
      "type": "Feature",
      "properties": {
        "norad_id": 28380,
        "name": "COSMOS 2407",
        "group": "musson",
        "lat": -0.6329192278726605,
        "lon": -147.33824364121958,
        "alt_km": 962.7595088818507,
        "timestamp": "2025-12-12T22:42:12.815502+00:00",
        "meta_object_name": "COSMOS 2407",
        "meta_object_id": "2004-028A",
        "meta_epoch": "2025-12-12T04:04:25.862592",
        "meta_mean_motion": 13.76313531,
        "meta_eccentricity": 0.00403562,
        "meta_inclination": 82.9607,
        "meta_ra_of_asc_node": 213.3147,
        "meta_arg_of_pericenter": 56.3948,
        "meta_mean_anomaly": 59.5835,
        "meta_ephemeris_type": 0,
        "meta_classification_type": "U",
        "meta_norad_cat_id": 28380,
        "meta_element_set_no": 999,
        "meta_rev_at_epoch": 7415,
        "meta_bstar": 6.183349e-05,
        "meta_mean_motion_dot": 7.6e-07,
        "meta_mean_motion_ddot": 0,
        "tle_line1": "1 28380U 04028A   25346.16974378  .00000076  00000+0  61833-4 0  9997",
        "tle_line2": "2 28380  82.9607 213.3147 0040356  56.3948  59.5835 13.76313531 74154"
      },
      "geometry": {
        "type": "Point",
        "coordinates": [
          -147.33824364121958,
          -0.6329192278726605
        ]
      }
    },
    {
      "type": "Feature",
      "properties": {
        "norad_id": 28521,
        "name": "COSMOS 2414",
        "group": "musson",
        "lat": -82.60104290096218,
        "lon": 112.13192138787652,
        "alt_km": 963.7611896562967,
        "timestamp": "2025-12-12T22:42:12.815513+00:00",
        "meta_object_name": "COSMOS 2414",
        "meta_object_id": "2005-002A",
        "meta_epoch": "2025-12-12T00:38:10.154688",
        "meta_mean_motion": 13.87902742,
        "meta_eccentricity": 0.00408543,
        "meta_inclination": 82.9492,
        "meta_ra_of_asc_node": 185.1994,
        "meta_arg_of_pericenter": 141.6769,
        "meta_mean_anomaly": 218.731,
        "meta_ephemeris_type": 0,
        "meta_classification_type": "U",
        "meta_norad_cat_id": 28521,
        "meta_element_set_no": 999,
        "meta_rev_at_epoch": 5785,
        "meta_bstar": 7.0527272e-05,
        "meta_mean_motion_dot": 1e-06,
        "meta_mean_motion_ddot": 0,
        "tle_line1": "1 28521U 05002A   25346.02650642  .00000100  00000+0  70527-4 0  9995",
        "tle_line2": "2 28521  82.9492 185.1994 0040854 141.6769 218.7310 13.87902742 57856"
      },
      "geometry": {
        "type": "Point",
        "coordinates": [
          112.13192138787652,
          -82.60104290096218
        ]
      }
    },
    {
      "type": "Feature",
      "properties": {
        "norad_id": 32052,
        "name": "COSMOS 2429",
        "group": "musson",
        "lat": 36.03698709968933,
        "lon": -11.700416549966613,
        "alt_km": 949.7146243389107,
        "timestamp": "2025-12-12T22:42:12.815524+00:00",
        "meta_object_name": "COSMOS 2429",
        "meta_object_id": "2007-038A",
        "meta_epoch": "2025-12-12T06:48:44.805024",
        "meta_mean_motion": 13.75149273,
        "meta_eccentricity": 0.00392578,
        "meta_inclination": 82.9804,
        "meta_ra_of_asc_node": 343.6448,
        "meta_arg_of_pericenter": 39.1153,
        "meta_mean_anomaly": 321.2829,
        "meta_ephemeris_type": 0,
        "meta_classification_type": "U",
        "meta_norad_cat_id": 32052,
        "meta_element_set_no": 999,
        "meta_rev_at_epoch": 91596,
        "meta_bstar": 7.9448057e-05,
        "meta_mean_motion_dot": 9.2e-07,
        "meta_mean_motion_ddot": 0,
        "tle_line1": "1 32052U 07038A   25346.28385191  .00000092  00000+0  79448-4 0  9993",
        "tle_line2": "2 32052  82.9804 343.6448 0039257  39.1153 321.2829 13.75149273915964"
      },
      "geometry": {
        "type": "Point",
        "coordinates": [
          -11.700416549966613,
          36.03698709968933
        ]
      }
    },
    {
      "type": "Feature",
      "properties": {
        "norad_id": 35635,
        "name": "COSMOS 2454",
        "group": "musson",
        "lat": -36.39473421250313,
        "lon": 163.25903531891004,
        "alt_km": 940.1882256909039,
        "timestamp": "2025-12-12T22:42:12.815535+00:00",
        "meta_object_name": "COSMOS 2454",
        "meta_object_id": "2009-039A",
        "meta_epoch": "2025-12-12T06:25:54.246144",
        "meta_mean_motion": 13.89928533,
        "meta_eccentricity": 0.00204523,
        "meta_inclination": 82.9554,
        "meta_ra_of_asc_node": 169.0026,
        "meta_arg_of_pericenter": 74.9969,
        "meta_mean_anomaly": 98.0449,
        "meta_ephemeris_type": 0,
        "meta_classification_type": "U",
        "meta_norad_cat_id": 35635,
        "meta_element_set_no": 999,
        "meta_rev_at_epoch": 83143,
        "meta_bstar": 8.1347714e-05,
        "meta_mean_motion_dot": 1.16e-06,
        "meta_mean_motion_ddot": 0,
        "tle_line1": "1 35635U 09039A   25346.26798896  .00000116  00000+0  81348-4 0  9993",
        "tle_line2": "2 35635  82.9554 169.0026 0020452  74.9969  98.0449 13.89928533831432"
      },
      "geometry": {
        "type": "Point",
        "coordinates": [
          163.25903531891004,
          -36.39473421250313
        ]
      }
    },
    {
      "type": "Feature",
      "properties": {
        "norad_id": 36519,
        "name": "COSMOS 2463",
        "group": "musson",
        "lat": -9.400586780222934,
        "lon": 25.389385786380043,
        "alt_km": 986.0115079976904,
        "timestamp": "2025-12-12T22:42:12.815545+00:00",
        "meta_object_name": "COSMOS 2463",
        "meta_object_id": "2010-017A",
        "meta_epoch": "2025-12-12T05:34:05.281248",
        "meta_mean_motion": 13.7164914,
        "meta_eccentricity": 0.00348071,
        "meta_inclination": 82.9614,
        "meta_ra_of_asc_node": 27.0858,
        "meta_arg_of_pericenter": 289.5238,
        "meta_mean_anomaly": 137.1765,
        "meta_ephemeris_type": 0,
        "meta_classification_type": "U",
        "meta_norad_cat_id": 36519,
        "meta_element_set_no": 999,
        "meta_rev_at_epoch": 78230,
        "meta_bstar": 5.6221987e-05,
        "meta_mean_motion_dot": 6.6e-07,
        "meta_mean_motion_ddot": 0,
        "tle_line1": "1 36519U 10017A   25346.23200557  .00000066  00000+0  56222-4 0  9999",
        "tle_line2": "2 36519  82.9614  27.0858 0034807 289.5238 137.1765 13.71649140782301"
      },
      "geometry": {
        "type": "Point",
        "coordinates": [
          25.389385786380043,
          -9.400586780222934
        ]
      }
    }
  ]
}